company,main_address,city,state,PinCode,country,contact
A Solo Fire & Security Ltd
A-com
"A-MTK CO., LTD"
A-TEC
A-Z Security
A.5 Security Consulting Group
A.C. Security Systems Ltd.
A.C. Technical Systems
A.F.A. Fire & Security Ltd.
A.I. Tech
A.I.S. Total Security Ltd.
A.M. Fire & Security Group
A.P.E. Fire & Security
a.p.i. Monitoring
a.s.t. S.r.l.
A.ST.I.M Srl
A.T.  Alarms Ltd.
A.V.Comm
A&A Security
"A&B Security Group, Inc."
"A+ Technology & Security Solutions, Inc."
A+A Security
A1 Data Comms
A1 Security Cameras
A1 Security Systems Ltd.
A3 Communications
AA Technology Ltd
AAA Security
AAC Distribution Sdn Bhd
AAC Mechanical & Electrical
"
                                        33 Meadow Way", Reading, Berks, RG7 4AU," United Kingdom (UK)
                                        




",+44 (0)118 984 4083
"
                                        7521 Veterans Parkway", Columbus, Georgia, 31909," United States of America (USA)
                                        




",+1 800 323 2266
"
                                        5F.-3", Zhonghe District, New Taipei City, 235," Taiwan
                                        




",+886 (0) 2 82 26 98 55
"
                                        104 N Hutchinson Rd", Spokane Valley, Washington, 99212," United States of America (USA)
                                        




",+1 (509) 928-5400
"
                                        Herons Way", Chester, Cheshire, CH4 9QR," United Kingdom (UK)
                                        




",+44 (0) 124 447 0504
"
                                        c/ Llull nº 70-72", Barcelona, Spain, 08005," Spain
                                        




",+34 934 360 994
"
                                        34 Main Street", Glasgow, Strathclyde, G78 1RE," United Kingdom (UK)
                                        




",+44 (0)141 881 6104
"
                                        2100 Forbes Street", Whitby, Ontario, L1N 9T3," Canada
                                        




",+1 (905) 666-8676
"
                                        The Unit", Whitburn, Lothian, EH47 0ET," United Kingdom (UK)
                                        




",+44 (0)150 174 9911
"
                                        Università di Salerno", Lab T18/1), Fisciano, 84084," Italy
                                        




",+39 089 96 3005
"
                                        Unit E1", Nottingham, Nottinghamshire, NG5 9RA," United Kingdom (UK)
                                        




",+44 (0) 800 018 4803
"
                                        Unit 7 English Business Park", Hove, East Sussex, BN3 7ET," United Kingdom (UK)
                                        




",+44 (0)127 374 0400
"
                                        76-78 Portview Road", Avonmouth, Bristol, BS11 9JF," United Kingdom (UK)
                                        




",+44 (0)117 982 5045
"
                                        30 Rayette Rd", Concord, Vaughan, Ontario," Canada
                                        




",+1 (800) 897-1039
"
                                        Via Verona", Cornaredo, Milano, 20010," Italy
                                        




",+39 (0) 2 93 56 73 38
"
                                        Via Comacchio 19","
                                        Via Comacchio 19", Ravenna, 48124," Italy
                                        




",
"
                                        107 Northgate", Nottingham, Nottinghamshire, NG7 7FZ," United Kingdom (UK)
                                        




",+44 (0)115 979 2300
"
                                        67 Levern Bridge Road", Glasgow, Strathclyde, G53 7AB," United Kingdom (UK)
                                        




",+44 (0)141 881 7106
"
                                        23 Cameron Court", Warrington, Cheshire, WA2 8RE," United Kingdom (UK)
                                        




",+44 (0)192 544 4333
"
                                        3201 W. Sahara", Las Vegas, Nevada, 89102," United States of America (USA)
                                        




",+1 (702) 362-0222
"
                                        1490 North Clinton Avenue", Islip, New York, NY 11706," United States of America (USA)
                                        




",+1 (631) 969-2600
"
                                        24B", Ahmadbey Agaoglu str., Baku, 1008," Azerbaijan
                                        




",+994 (0) 1 24 80 54 84
"
                                        The White Cottage", Bulcote, Nottinghamshire, NG14 5HA," United Kingdom (UK)
                                        




",+44 (0) 115 931 4000
"
                                        3784 Arapaho Road", Addison, Texas, 75001," United States of America (USA)
                                        




",
"
                                        4 Viceroy Court", Petersfield, Hampshire, GU32 3LJ," United Kingdom (UK)
                                        




",+44 (0)173 026 6811
"
                                        1038 Kinley Rd. Building B", Irmo, South Carolina, 29063," United States of America (USA)
                                        




",(803) 744-5000
"
                                        1", Naya Paltan, Dhaka, 1000," Bangladesh
                                        




",+880 (0) 29 33 50 63
"
                                        Office 1", Leighton buzzard, Bedfordshire, LU7 9HH," United Kingdom (UK)
                                        




",+44 (0)1525 378 222
"
                                        30", Puchong, Selangor, 47100," Malaysia
                                        




",+60 (0) 3 80 62 39 19
"
                                        Unit 6", Welwyn Garden City, Hertfordshire, AL7 1GX," United Kingdom (UK)
                                        




",+44 (0)1707 325566
